sat19450
1 19450U 78100AH  20046.55359719  .00000039  00000-0  39161-3 0  9996
2 19450  82.5453 255.7760 0014217 215.7767 173.8177 11.98103307381391
